#aV2016  1 23  0  0  0.00000000     288 DD+AD WGS84 FIT  NGA
## 1880 518400.00000000   300.00000000 57410 0.0000000000000
+   31     1  2  3  5  6  7  8  9 10 11 12 13 14 15 16 17 18
+         19 20 21 22 23 24 25 26 27 28 29 30 31 32  0  0  0
+          0  0  0  0  0  0  0  0  0  0  0  0  0  0  0  0  0
+          0  0  0  0  0  0  0  0  0  0  0  0  0  0  0  0  0
+          0  0  0  0  0  0  0  0  0  0  0  0  0  0  0  0  0
++         2  2  2  2  2  2  2  2  2  2  2  2  2  2  2  2  2
++         2  2  2  2  2  2  2  2  2  2  2  2  2  2  0  0  0
++         0  0  0  0  0  0  0  0  0  0  0  0  0  0  0  0  0
++         0  0  0  0  0  0  0  0  0  0  0  0  0  0  0  0  0
++         0  0  0  0  0  0  0  0  0  0  0  0  0  0  0  0  0
%c cc cc ccc ccc cccc cccc cccc cccc ccccc ccccc ccccc ccccc
%c cc cc ccc ccc cccc cccc cccc cccc ccccc ccccc ccccc ccccc
%f  0.0000000  0.000000000  0.00000000000  0.000000000000000
%f  0.0000000  0.000000000  0.00000000000  0.000000000000000
%i    0    0    0    0      0      0      0      0         0
%i    0    0    0    0      0      0      0      0         0
/*      NGA, ST. LOUIS,MO.                                  
/*   EPHEMERIS COMPUTED FROM 2 DAYS OF DATA                 
/*   EPOCHA v2.4 SMOOTHER                                   
/*   G1762 IERS2010 SATAF SATAPC                            
*  2016  1 23 12 35  0.00000000
P  1   6110.405049  14214.139937 -21681.467286      9.858366                    
V  1 -26878.284327   4911.230493  -4160.733566      0.009577                    
P  2  17104.698276 -14416.011129  14401.865347    599.358645                    
V  2  17973.772196  -1144.882566 -23579.396580      0.002335                    
P  3  11335.116235  22513.469276  -8355.775860    -15.281233                    
V  3  -8886.771819  -6387.673009 -29286.061748     -0.049518                    
P  5   6010.160077 -15652.438697  20487.622731   -152.757488                    
V  5  17981.485450  19183.320493   9541.877597      0.035031                    
P  6  25674.037816  -6350.917632   2394.981124    133.785812                    
V  6   3469.764220   2128.259909 -31637.621949      0.061631                    
P  7  21295.002577   6940.604115  14702.136754    472.645761                    
V  7 -17809.448175   4402.659251  23547.559651     -0.015166                    
P  8  -5038.891811  25495.311822  -5397.960291    -21.107310                    
V  8  -4878.112390   5621.503227  30791.521181     -0.014181                    
P  9  11487.000093  11735.121267  20854.297234     55.805086                    
V  9  -9627.402128  24751.036215  -8626.062243      0.078047                    
P 10 -19748.385054  -4626.378228 -17166.929242     48.969301                    
V 10 -12808.427871 -17722.390792  19453.084086     -0.013115                    
P 11   1333.374721  17934.385734 -20084.644370   -628.684718                    
V 11 -21843.619307  11446.222586   9081.859607     -0.018600                    
P 12  -7663.675407 -22745.636884 -11721.199846    362.988804                    
V 12   9966.391168  10750.992487 -27423.390259      0.026767                    
P 13  12600.522296 -23389.714722   1376.054869   -180.388847                    
V 13   1296.408631   2766.988031  31878.280233     -0.025768                    
P 14 -17066.897704   5180.199037 -19383.596456      7.468711                    
V 14   9104.591668 -23523.925332 -14267.020443     -0.023089                    
P 15    798.499414 -24979.499820  -8588.032193   -293.646701                    
V 15   6651.652115  -9378.990126  28640.929065     -0.018564                    
P 16  -6875.096124  14161.786262  21233.681256    -45.916761                    
V 16 -16631.296667 -21486.838131   9280.611532      0.032268                    
P 17  16485.327723  -4480.981149 -19955.033317   -199.346667                    
V 17  -8918.260081  24536.692617 -12866.440673     -0.008426                    
P 18 -20707.934448 -14957.453629  -7243.005824    475.965021                    
V 18  -3894.182728  -9742.894598  28903.001097      0.038534                    
P 19  17589.456866  -6628.753253 -19179.348080   -524.557710                    
V 19  -9247.349108  21809.951168 -15796.189212     -0.001703                    
P 20  -9958.714797 -21868.326022  11091.543279    387.726376                    
V 20  12585.542777   7822.473650  26403.553782      0.026821                    
P 21 -23562.641226  -4539.827428  12428.972001   -506.724032                    
V 21  13797.939236  -5410.592416  25420.061285     -0.019872                    
P 22 -13955.360509   8127.978987 -20891.452649    407.697427                    
V 22 -17775.244779 -20543.583128   3678.594613     -0.050552                    
P 23   3853.005182  21405.410721  15114.463836   -156.392948                    
V 23  -8906.919475  17097.206783 -22625.899071     -0.019221                    
P 24  -2873.087955 -15174.196671 -21652.623271    -11.194612                    
V 24  26905.475888  -5301.087352    331.515250     -0.005475                    
P 25 -17319.930468 -20266.546837    260.420489   -104.370335                    
V 25   1315.288273  -1701.011914 -32017.147550     -0.064740                    
P 26 -14626.352690   5900.456392  21380.191473   -223.508157                    
V 26 -17237.862202 -20958.715340  -5975.404617     -0.163855                    
P 27 -11691.566842  23295.013352   4663.956495     56.020887                    
V 27   -446.497413  -6493.692125  31314.293221      0.034922                    
P 28  18777.205800   7110.218125 -16779.744995    497.333072                    
V 28  12065.021213  19003.051311  20724.314110      0.027070                    
P 29  -8524.149331 -14977.861381  20238.952564    652.494699                    
V 29  10819.020923 -23224.061373 -12600.809470      0.009955                    
P 30  26119.425522    738.570756   4991.417726     87.823017                    
V 30  -5987.939794   3555.982421  30701.779221      0.046046                    
P 31 -25492.767963   6827.351711   4522.506872    285.819797                    
V 31  -5771.393940  -1246.088527 -31107.232538     -0.016243                    
P 32    115.595230  20893.565082 -16775.937363     90.651712                    
V 32 -13636.134552 -16048.102583 -19645.438342      0.131232                    
EOF
